NORAD_CAT_ID,OBJECT_NAME,OBJECT_TYPE,EPOCH,MEAN_MOTION,ECCENTRICITY,INCLINATION,RA_OF_ASC_NODE,ARG_OF_PERICENTER,MEAN_ANOMALY,BSTAR,MEAN_MOTION_DOT,MEAN_MOTION_DDOT,TLE_LINE0,TLE_LINE1,TLE_LINE2,SEMIMAJOR_AXIS,PERIOD,APOGEE,PERIGEE,DECAYED
52118.0,STARLINK-3743,PAYLOAD,2022-04-09 22:00:00,15.73151032,0.0001382,53.2178,36.5748,102.4729,161.3364,0.00039379,0.00054892,0.0,0 STARLINK-3743,1 52118U 22029AG  22099.91667824  .00054892  00000-0  39379-3 0  9999,2 52118  53.2178  36.5748 0001382 102.4729 161.3364 15.73151032  3710,6728.035,91.536,350.83,348.97,0.0
52118.0,STARLINK-3743,PAYLOAD,2022-04-10 12:00:00,15.73265309,0.0001224,53.2173,33.6885,102.3062,227.0953,-0.00016366,-0.00023588,0.0,0 STARLINK-3743,1 52118U 22029AG  22100.50001157 -.00023588  00000-0 -16366-3 0  9999,2 52118  53.2173  33.6885 0001224 102.3062 227.0953 15.73265309  4762,6727.709,91.529,350.397,348.751,0.0
52118.0,STARLINK-3743,PAYLOAD,2022-04-10 14:00:01,15.73262325,0.000121,53.2174,33.2757,107.1352,334.5166,-0.0001415,-0.00020483,0.0,0 STARLINK-3743,1 52118U 22029AG  22100.58334491 -.00020483  00000-0 -14150-3 0  9997,2 52118  53.2174  33.2757 0001210 107.1352 334.5166 15.73262325  3716,6727.717,91.53,350.397,348.76800000000014,0.0
52118.0,STARLINK-3743,PAYLOAD,2022-04-10 20:00:01,15.73295523,0.000128,53.2177,32.038000000000004,111.0882,307.3378,-0.00040715,-0.00057604,0.0,0 STARLINK-3743,1 52118U 22029AG  22100.83334491 -.00057604  00000-0 -40715-3 0  9996,2 52118  53.2177  32.0380 0001280 111.0882 307.3378 15.73295523  4829,6727.623000000001,91.528,350.349,348.62699999999984,0.0
52118.0,STARLINK-3743,PAYLOAD,2022-04-10 22:00:00,15.73302123,0.0001257,53.2177,31.6261,109.9901,60.6905,-0.00067704,-0.00094985,0.0,0 STARLINK-3743,1 52118U 22029AG  22100.91667824 -.00094985  00000-0 -67704-3 0  9994,2 52118  53.2177  31.6261 0001257 109.9901  60.6905 15.73302123  3711,6727.604,91.527,350.315,348.62300000000016,0.0
52118.0,STARLINK-3743,PAYLOAD,2022-04-11 04:00:01,15.73189317,0.0001171,53.2178,30.3904,97.9743,49.5191,0.00014238,0.00019399,0.0,0 STARLINK-3743,1 52118U 22029AG  22101.16668981  .00019399  00000-0  14238-3 0  9995,2 52118  53.2178  30.3904 0001171  97.9743  49.5191 15.73189317  4876,6727.926,91.534,350.57800000000015,349.00300000000016,0.0
52118.0,STARLINK-3743,PAYLOAD,2022-04-11 14:00:01,15.73244379,0.0001296999999999,53.2177,28.3268,106.3463,242.227,-0.00085478,-0.00119124,0.0,0 STARLINK-3743,1 52118U 22029AG  22101.58334491 -.00119124  00000-0 -85478-3 0  9990,2 52118  53.2177  28.3268 0001297 106.3463 242.2270 15.73244379  3709,6727.769,91.531,350.506,348.761,0.0
52118.0,STARLINK-3743,PAYLOAD,2022-04-11 20:00:01,15.73163464,0.0001696999999999,53.2178,27.0896,105.7326,219.5455,-0.00066533,-0.00092831,0.0,0 STARLINK-3743,1 52118U 22029AG  22101.83334491 -.00092831  00000-0 -66533-3 0  9994,2 52118  53.2178  27.0896 0001697 105.7326 219.5455 15.73163464  4975,6727.999,91.535,351.006,348.723,0.0
52118.0,STARLINK-3743,PAYLOAD,2022-04-11 22:00:00,15.73123008,0.0001710999999999,53.2177,26.6779,103.4299,334.0743,-0.00026124,-0.00037003,0.0,0 STARLINK-3743,1 52118U 22029AG  22101.91667824 -.00037003  00000-0 -26124-3 0  9994,2 52118  53.2177  26.6779 0001711 103.4299 334.0743 15.73123008  3703,6728.115,91.538,351.131,348.829,0.0
52118.0,STARLINK-3743,PAYLOAD,2022-04-12 04:00:00,15.73075745,0.000179,53.2175,25.4425,97.1429,316.9818,0.00063134,0.0008845,0.0,0 STARLINK-3743,1 52118U 22029AG  22102.16667824  .00088450  00000-0  63134-3 0  9994,2 52118  53.2175  25.4425 0001790  97.1429 316.9818 15.73075745  5031,6728.249,91.54,351.319,348.91,0.0
52118.0,STARLINK-3743,PAYLOAD,2022-04-12 14:00:01,15.73126335,0.0001725,53.2173,23.3789,106.247,148.9136,0.00061208,0.00085893,0.0,0 STARLINK-3743,1 52118U 22029AG  22102.58334491  .00085893  00000-0  61208-3 0  9999,2 52118  53.2173  23.3789 0001725 106.2470 148.9136 15.73126335  3705,6728.105,91.537,351.131,348.81,0.0
52118.0,STARLINK-3743,PAYLOAD,2022-04-12 20:00:01,15.73176957,0.0001795,53.2177,22.1419,108.3619,123.4346,0.00033941,0.00047236,0.0,0 STARLINK-3743,1 52118U 22029AG  22102.83334491  .00047236  00000-0  33941-3 0  9999,2 52118  53.2177  22.1419 0001795 108.3619 123.4346 15.73176957  5136,6727.9609999999975,91.535,351.034,348.61800000000005,0.0
52118.0,STARLINK-3743,PAYLOAD,2022-04-12 22:00:00,15.73197339,0.0001761,53.2177,21.7301,105.8611,238.1583,0.00012094,0.00016384,0.0,0 STARLINK-3743,1 52118U 22029AG  22102.91667824  .00016384  00000-0  12094-3 0  9993,2 52118  53.2177  21.7301 0001761 105.8611 238.1583 15.73197339  3703,6727.903,91.533,350.95300000000015,348.583,0.0
52118.0,STARLINK-3743,PAYLOAD,2022-04-13 14:00:03,15.73204051,0.0001874,53.2175,18.424,100.2511,61.8661,9.49e-06,7.11e-06,0.0,0 STARLINK-3743,1 52118U 22029AG  22103.58336806  .00000711  00000-0  94900-5 0  9995,2 52118  53.2175  18.4240 0001874 100.2511  61.8661 15.73204051  3718,6727.884,91.533,351.009,348.48800000000006,0.0
52118.0,STARLINK-3743,PAYLOAD,2022-04-13 20:00:01,15.73350029,0.0001613,53.2177,17.1906,111.7155,27.0736,-0.0011636,-0.00161864,0.0,0 STARLINK-3743,1 52118U 22029AG  22103.83335648 -.00161864  00000-0 -11636-2 0  9997,2 52118  53.2177  17.1906 0001613 111.7155  27.0736 15.73350029  5296,6727.467,91.524,350.418,348.247,0.0
52118.0,STARLINK-3743,PAYLOAD,2022-04-13 22:00:00,15.73470867,0.0001439,53.2178,16.7786,113.792,137.1698,-0.00392,-0.00523923,0.0,0 STARLINK-3743,1 52118U 22029AG  22103.91667824 -.00523923  00000-0 -39200-2 0  9995,2 52118  53.2178  16.7786 0001439 113.7920 137.1698 15.73470867  3703,6727.123000000001,91.517,349.956,348.02,0.0
52118.0,STARLINK-3743,PAYLOAD,2022-04-14 04:00:00,15.73238693,0.0001199,53.2175,15.546,104.2207,123.5426,-0.00033176,-0.00046997,0.0,0 STARLINK-3743,1 52118U 22029AG  22104.16667824 -.00046997  00000-0 -33176-3 0  9991,2 52118  53.2175  15.5460 0001199 104.2207 123.5426 15.73238693  5341,6727.785,91.531,350.457,348.843,0.0
52118.0,STARLINK-3743,PAYLOAD,2022-04-14 14:00:01,15.7319516,0.000121,53.2172,13.4818,121.4077,307.5490000000001,-2.9028e-05,-4.69e-05,0.0,0 STARLINK-3743,1 52118U 22029AG  22104.58334491 -.00004690  00000-0 -29028-4 0  9994,2 52118  53.2172  13.4818 0001210 121.4077 307.5490 15.73195160  3706,6727.909000000002,91.533,350.588,348.96,0.0
52118.0,STARLINK-3743,PAYLOAD,2022-04-14 20:00:01,15.73185338,0.0001186,53.2176,12.2453,122.6746,282.976,0.00010532,0.00014177,0.0,0 STARLINK-3743,1 52118U 22029AG  22104.83334491  .00014177  00000-0  10532-3 0  9990,2 52118  53.2176  12.2453 0001186 122.6746 282.9760 15.73185338  5456,6727.937,91.534,350.6,349.004,0.0
52118.0,STARLINK-3743,PAYLOAD,2022-04-14 22:00:00,15.73182489,0.000111,53.2175,11.8335,119.1634,38.7166,0.00018734,0.00025733,0.0,0 STARLINK-3743,1 52118U 22029AG  22104.91667824  .00025733  00000-0  18734-3 0  9990,2 52118  53.2175  11.8335 0001110 119.1634  38.7166 15.73182489  3711,6727.945,91.534,350.557,349.06300000000016,0.0
52118.0,STARLINK-3743,PAYLOAD,2022-04-15 03:25:50,15.73221951,0.0001077,53.2175,10.7123,121.8803,238.2322,0.00050631,0.00071107,0.0,0 STARLINK-3743,1 52118U 22029AG  22105.14294533  .00071107  00000-0  50631-3 0  9997,2 52118  53.2175  10.7123 0001077 121.8803 238.2322 15.73221951  5490,6727.833000000001,91.532,350.422,348.973,0.0
52118.0,STARLINK-3743,PAYLOAD,2022-04-15 14:00:01,15.73240458,0.000125,53.2174,8.5334,119.942,215.9127,0.00065128,0.00091948,0.0,0 STARLINK-3743,1 52118U 22029AG  22105.58334491  .00091948  00000-0  65128-3 0  9995,2 52118  53.2174   8.5334 0001250 119.9420 215.9127 15.73240458  3704,6727.78,91.531,350.486,348.80400000000014,0.0
52118.0,STARLINK-3743,PAYLOAD,2022-04-15 20:00:01,15.73292232,0.0001375,53.2175,7.2971,116.5964,195.977,-0.00049548,-0.00069857,0.0,0 STARLINK-3743,1 52118U 22029AG  22105.83334491 -.00069857  00000-0 -49548-3 0  9997,2 52118  53.2175   7.2971 0001375 116.5964 195.9770 15.73292232  5599,6727.632,91.528,350.422,348.57199999999995,0.0
52118.0,STARLINK-3743,PAYLOAD,2022-04-15 22:00:00,15.732777800000004,0.0001346,53.2173,6.8853,112.9733,311.8595,-0.0004777,-0.0006735,0.0,0 STARLINK-3743,1 52118U 22029AG  22105.91667824 -.00067350  00000-0 -47770-3 0  9996,2 52118  53.2173   6.8853 0001346 112.9733 311.8595 15.73277780  3686,6727.6730000000025,91.529,350.444,348.6330000000001,0.0
52118.0,STARLINK-3743,PAYLOAD,2022-04-16 04:00:00,15.73231931,0.0001311,53.2169,5.6493,106.5026,295.0544,-0.00063057,-0.00088313,0.0,0 STARLINK-3743,1 52118U 22029AG  22106.16667824 -.00088313  00000-0 -63057-3 0  9992,2 52118  53.2169   5.6493 0001311 106.5026 295.0544 15.73231931  5658,6727.804,91.531,350.551,348.787,0.0
52118.0,STARLINK-3743,PAYLOAD,2022-04-16 12:00:02,15.73123025,0.0001311,53.2168,3.9977,119.9311,10.6203,-0.00073499,-0.00102191,0.0,0 STARLINK-3743,1 52118U 22029AG  22106.50002315 -.00102191  00000-0 -73499-3 0  9990,2 52118  53.2168   3.9977 0001311 119.9311  10.6203 15.73123025  5703,6728.115,91.538,350.862,349.098,0.0
52118.0,STARLINK-3743,PAYLOAD,2022-04-16 14:00:01,15.73065367,0.0001383,53.2167,3.5851,120.2716,122.4325,-5.0342e-05,-7.637e-05,0.0,0 STARLINK-3743,1 52118U 22029AG  22106.58334491 -.00007637  00000-0 -50342-4 0  9993,2 52118  53.2167   3.5851 0001383 120.2716 122.4325 15.73065367  3701,6728.279,91.541,351.075,349.214,0.0
52118.0,STARLINK-3743,PAYLOAD,2022-04-16 20:00:01,15.73034848,0.000136,53.217,2.3491,119.0643,100.2119,0.0011627,0.00164624,0.0,0 STARLINK-3743,1 52118U 22029AG  22106.83334491  .00164624  00000-0  11627-2 0  9990,2 52118  53.2170   2.3491 0001360 119.0643 100.2119 15.73034848  5754,6728.366,91.543,351.146,349.316,0.0
52118.0,STARLINK-3743,PAYLOAD,2022-04-16 22:00:01,15.73066353,0.0001345,53.2169,1.9373,114.4107,217.116,0.0010533,0.00148997,0.0,0 STARLINK-3743,1 52118U 22029AG  22106.91668981  .00148997  00000-0  10533-2 0  9993,2 52118  53.2169   1.9373 0001345 114.4107 217.1160 15.73066353  3694,6728.276,91.541,351.046,349.236,0.0
